{
 "generated_at": "2026-07-03T08:09:24Z",
 "sources": [
  {
   "name": "CelesTrak",
   "url": "https://celestrak.org/NORAD/elements/",
   "license": "frei verfügbar; Attribution. Ursprünglich USSPACECOM/Space-Track."
  },
  {
   "name": "GCAT (J. McDowell, planet4589.org)",
   "url": "https://planet4589.org/space/gcat/",
   "license": "CC-BY 4.0"
  }
 ],
 "satellites": [
  {
   "norad": 51284,
   "name": "LUDI TANCE 1-01A (L-SAR 01A)",
   "intl": "2022-007A",
   "group": "sar",
   "gcat": {
    "class": "C",
    "category": "IMG-R",
    "owner": "SAST",
    "state": "CN"
   },
   "omm": {
    "OBJECT_NAME": "LUDI TANCE 1-01A (L-SAR 01A)",
    "OBJECT_ID": "2022-007A",
    "EPOCH": "2026-07-01T10:23:50.767008",
    "MEAN_MOTION": 14.88424373,
    "ECCENTRICITY": 0.0001594,
    "INCLINATION": 97.8099,
    "RA_OF_ASC_NODE": 189.6506,
    "ARG_OF_PERICENTER": 89.844,
    "MEAN_ANOMALY": 270.2959,
    "EPHEMERIS_TYPE": 0,
    "CLASSIFICATION_TYPE": "U",
    "NORAD_CAT_ID": 51284,
    "ELEMENT_SET_NO": 999,
    "REV_AT_EPOCH": 24059,
    "BSTAR": 0.000076794061,
    "MEAN_MOTION_DOT": 0.00000658,
    "MEAN_MOTION_DDOT": 0
   }
  },
  {
   "norad": 51822,
   "name": "LUDI TANCE 1-01B (L-SAR 01B)",
   "intl": "2022-018A",
   "group": "sar",
   "gcat": {
    "class": "C",
    "category": "IMG-R",
    "owner": "SAST",
    "state": "CN"
   },
   "omm": {
    "OBJECT_NAME": "LUDI TANCE 1-01B (L-SAR 01B)",
    "OBJECT_ID": "2022-018A",
    "EPOCH": "2026-07-02T17:51:35.406720",
    "MEAN_MOTION": 14.88418198,
    "ECCENTRICITY": 0.0001629,
    "INCLINATION": 97.8111,
    "RA_OF_ASC_NODE": 190.9403,
    "ARG_OF_PERICENTER": 91.0875,
    "MEAN_ANOMALY": 269.0528,
    "EPHEMERIS_TYPE": 0,
    "CLASSIFICATION_TYPE": "U",
    "NORAD_CAT_ID": 51822,
    "ELEMENT_SET_NO": 999,
    "REV_AT_EPOCH": 23602,
    "BSTAR": 0.000080324,
    "MEAN_MOTION_DOT": 0.0000069,
    "MEAN_MOTION_DDOT": 0
   }
  },
  {
   "norad": 57624,
   "name": "LUDI TANCE-4 01A",
   "intl": "2023-120A",
   "group": "sar",
   "gcat": {
    "class": "D",
    "category": "IMG-R",
    "owner": "CNSA",
    "state": "CN"
   },
   "omm": {
    "OBJECT_NAME": "LUDI TANCE-4 01A",
    "OBJECT_ID": "2023-120A",
    "EPOCH": "2026-07-01T19:49:50.102976",
    "MEAN_MOTION": 1.00266926,
    "ECCENTRICITY": 0.00012811,
    "INCLINATION": 15.0947,
    "RA_OF_ASC_NODE": 193.607,
    "ARG_OF_PERICENTER": 17.4858,
    "MEAN_ANOMALY": 95.7535,
    "EPHEMERIS_TYPE": 0,
    "CLASSIFICATION_TYPE": "U",
    "NORAD_CAT_ID": 57624,
    "ELEMENT_SET_NO": 999,
    "REV_AT_EPOCH": 1069,
    "BSTAR": 0,
    "MEAN_MOTION_DOT": -0.00000162,
    "MEAN_MOTION_DDOT": 0
   }
  },
  {
   "norad": 27004,
   "name": "MAROC-TUBSAT",
   "intl": "2001-056D",
   "group": "resource",
   "gcat": {
    "class": null,
    "category": null,
    "owner": null,
    "state": null
   },
   "omm": {
    "OBJECT_NAME": "MAROC-TUBSAT",
    "OBJECT_ID": "2001-056D",
    "EPOCH": "2026-07-02T18:36:26.059968",
    "MEAN_MOTION": 13.70263068,
    "ECCENTRICITY": 0.0020612,
    "INCLINATION": 99.809,
    "RA_OF_ASC_NODE": 0.9291,
    "ARG_OF_PERICENTER": 102.6599,
    "MEAN_ANOMALY": 326.8055,
    "EPHEMERIS_TYPE": 0,
    "CLASSIFICATION_TYPE": "U",
    "NORAD_CAT_ID": 27004,
    "ELEMENT_SET_NO": 999,
    "REV_AT_EPOCH": 22832,
    "BSTAR": 0.000012887,
    "MEAN_MOTION_DOT": -3.5e-7,
    "MEAN_MOTION_DDOT": 0
   }
  },
  {
   "norad": 40069,
   "name": "METEOR-M 2",
   "intl": "2014-037A",
   "group": "weather",
   "gcat": {
    "class": "C",
    "category": "MET",
    "owner": "RGMS/VNIIEMI",
    "state": "RU"
   },
   "omm": {
    "OBJECT_NAME": "METEOR-M 2",
    "OBJECT_ID": "2014-037A",
    "EPOCH": "2026-07-02T18:31:55.140672",
    "MEAN_MOTION": 14.21466066,
    "ECCENTRICITY": 0.0005919,
    "INCLINATION": 98.512,
    "RA_OF_ASC_NODE": 158.9591,
    "ARG_OF_PERICENTER": 4.1216,
    "MEAN_ANOMALY": 356.001,
    "EPHEMERIS_TYPE": 0,
    "CLASSIFICATION_TYPE": "U",
    "NORAD_CAT_ID": 40069,
    "ELEMENT_SET_NO": 999,
    "REV_AT_EPOCH": 62153,
    "BSTAR": 0.00010646,
    "MEAN_MOTION_DOT": 0.00000191,
    "MEAN_MOTION_DDOT": 0
   }
  },
  {
   "norad": 44387,
   "name": "METEOR-M2 2",
   "intl": "2019-038A",
   "group": "weather",
   "gcat": {
    "class": "C",
    "category": "MET",
    "owner": "RGMS/VNIIEMI",
    "state": "RU"
   },
   "omm": {
    "OBJECT_NAME": "METEOR-M2 2",
    "OBJECT_ID": "2019-038A",
    "EPOCH": "2026-07-02T18:27:26.063424",
    "MEAN_MOTION": 14.24369221,
    "ECCENTRICITY": 0.0001409,
    "INCLINATION": 98.9148,
    "RA_OF_ASC_NODE": 171.2847,
    "ARG_OF_PERICENTER": 25.7364,
    "MEAN_ANOMALY": 334.3884,
    "EPHEMERIS_TYPE": 0,
    "CLASSIFICATION_TYPE": "U",
    "NORAD_CAT_ID": 44387,
    "ELEMENT_SET_NO": 999,
    "REV_AT_EPOCH": 36351,
    "BSTAR": -0.000071223,
    "MEAN_MOTION_DOT": -0.00000211,
    "MEAN_MOTION_DDOT": 0
   }
  },
  {
   "norad": 57166,
   "name": "METEOR-M2 3",
   "intl": "2023-091A",
   "group": "weather",
   "gcat": {
    "class": "C",
    "category": "MET",
    "owner": "RGMS/VNIIEMI",
    "state": "RU"
   },
   "omm": {
    "OBJECT_NAME": "METEOR-M2 3",
    "OBJECT_ID": "2023-091A",
    "EPOCH": "2026-07-02T18:24:25.089984",
    "MEAN_MOTION": 14.24048058,
    "ECCENTRICITY": 0.0005013,
    "INCLINATION": 98.608,
    "RA_OF_ASC_NODE": 238.426,
    "ARG_OF_PERICENTER": 118.1282,
    "MEAN_ANOMALY": 242.0404,
    "EPHEMERIS_TYPE": 0,
    "CLASSIFICATION_TYPE": "U",
    "NORAD_CAT_ID": 57166,
    "ELEMENT_SET_NO": 999,
    "REV_AT_EPOCH": 15673,
    "BSTAR": 0.00001738,
    "MEAN_MOTION_DOT": -3e-8,
    "MEAN_MOTION_DDOT": 0
   }
  },
  {
   "norad": 59051,
   "name": "METEOR-M2 4",
   "intl": "2024-039A",
   "group": "weather",
   "gcat": {
    "class": "C",
    "category": "MET",
    "owner": "RGMS/VNIIEMI",
    "state": "RU"
   },
   "omm": {
    "OBJECT_NAME": "METEOR-M2 4",
    "OBJECT_ID": "2024-039A",
    "EPOCH": "2026-07-02T19:11:04.415424",
    "MEAN_MOTION": 14.22431103,
    "ECCENTRICITY": 0.0008036,
    "INCLINATION": 98.7025,
    "RA_OF_ASC_NODE": 142.9016,
    "ARG_OF_PERICENTER": 119.7013,
    "MEAN_ANOMALY": 240.4966,
    "EPHEMERIS_TYPE": 0,
    "CLASSIFICATION_TYPE": "U",
    "NORAD_CAT_ID": 59051,
    "ELEMENT_SET_NO": 999,
    "REV_AT_EPOCH": 12148,
    "BSTAR": 0.000027558,
    "MEAN_MOTION_DOT": 1.8e-7,
    "MEAN_MOTION_DDOT": 0
   }
  },
  {
   "norad": 38552,
   "name": "METEOSAT-10 (MSG-3)",
   "intl": "2012-035B",
   "group": "weather",
   "gcat": {
    "class": "C",
    "category": "MET",
    "owner": "EUMET",
    "state": "I-EUM"
   },
   "omm": {
    "OBJECT_NAME": "METEOSAT-10 (MSG-3)",
    "OBJECT_ID": "2012-035B",
    "EPOCH": "2026-07-02T07:08:22.761024",
    "MEAN_MOTION": 1.00269475,
    "ECCENTRICITY": 0.0001613,
    "INCLINATION": 4.7052,
    "RA_OF_ASC_NODE": 60.947,
    "ARG_OF_PERICENTER": 15.2569,
    "MEAN_ANOMALY": 311.356,
    "EPHEMERIS_TYPE": 0,
    "CLASSIFICATION_TYPE": "U",
    "NORAD_CAT_ID": 38552,
    "ELEMENT_SET_NO": 999,
    "REV_AT_EPOCH": 5100,
    "BSTAR": 0,
    "MEAN_MOTION_DOT": 1e-8,
    "MEAN_MOTION_DDOT": 0
   }
  },
  {
   "norad": 40732,
   "name": "METEOSAT-11 (MSG-4)",
   "intl": "2015-034A",
   "group": "weather",
   "gcat": {
    "class": "C",
    "category": "MET",
    "owner": "EUMET",
    "state": "I-EUM"
   },
   "omm": {
    "OBJECT_NAME": "METEOSAT-11 (MSG-4)",
    "OBJECT_ID": "2015-034A",
    "EPOCH": "2026-07-02T17:26:30.277248",
    "MEAN_MOTION": 1.00267949,
    "ECCENTRICITY": 0.0002236,
    "INCLINATION": 3.2394,
    "RA_OF_ASC_NODE": 71.0131,
    "ARG_OF_PERICENTER": 349.0912,
    "MEAN_ANOMALY": 131.6062,
    "EPHEMERIS_TYPE": 0,
    "CLASSIFICATION_TYPE": "U",
    "NORAD_CAT_ID": 40732,
    "ELEMENT_SET_NO": 999,
    "REV_AT_EPOCH": 737,
    "BSTAR": 0,
    "MEAN_MOTION_DOT": 7.1e-7,
    "MEAN_MOTION_DDOT": 0
   }
  }
 ]
}
